NORAD_CAT_ID,OBJECT_NAME,OBJECT_TYPE,EPOCH,MEAN_MOTION,ECCENTRICITY,INCLINATION,RA_OF_ASC_NODE,ARG_OF_PERICENTER,MEAN_ANOMALY,BSTAR,MEAN_MOTION_DOT,MEAN_MOTION_DDOT,TLE_LINE0,TLE_LINE1,TLE_LINE2,SEMIMAJOR_AXIS,PERIOD,APOGEE,PERIGEE,DECAYED
52455.0,STARLINK-3890,PAYLOAD,2023-07-06 14:16:08,15.08844511,0.0001147,53.2164,135.4709,84.7616,275.3507,0.00013649,1.885e-05,0.0,0 STARLINK-3890,1 52455U 22049E   23187.59454407  .00001885  00000-0  13649-3 0  9995,2 52455  53.2164 135.4709 0001147  84.7616 275.3507 15.08844511 64767,6917.867,95.437,540.525,538.938,0.0
52455.0,STARLINK-3890,PAYLOAD,2023-07-08 02:50:01,15.08841596,0.0001266,53.2159,128.6318,82.6954,277.4182,-7.8334e-06,-4.13e-06,0.0,0 STARLINK-3890,1 52455U 22049E   23189.11806930 -.00000413  00000-0 -78334-5 0  9999,2 52455  53.2159 128.6318 0001266  82.6954 277.4182 15.08841596 64992,6917.876,95.437,540.616,538.865,0.0
52455.0,STARLINK-3890,PAYLOAD,2023-07-09 04:16:11,15.08855125,0.0001128,53.217,123.8749,85.4114,274.7007,-0.00019524,-3.395e-05,0.0,0 STARLINK-3890,1 52455U 22049E   23190.17790797 -.00003395  00000-0 -19524-3 0  9996,2 52455  53.2170 123.8749 0001128  85.4114 274.7007 15.08855125 65154,6917.834,95.437,540.479,538.919,0.0
52455.0,STARLINK-3890,PAYLOAD,2023-07-09 18:34:39,15.08833883,0.0001199,53.217,121.1984,78.8609,281.2518,7.2314e-05,8.63e-06,0.0,0 STARLINK-3890,1 52455U 22049E   23190.77407333  .00000863  00000-0  72314-4 0  9995,2 52455  53.2170 121.1984 0001199  78.8609 281.2518 15.08833883 65246,6917.899,95.438,540.594,538.935,0.0
52455.0,STARLINK-3890,PAYLOAD,2023-07-10 20:00:50,15.08836181,0.0001377,53.2172,116.4409,86.1627,273.9522,2.8871e-05,1.72e-06,0.0,0 STARLINK-3890,1 52455U 22049E   23191.83391650  .00000172  00000-0  28871-4 0  9999,2 52455  53.2172 116.4409 0001377  86.1627 273.9522 15.08836181 65402,6917.892,95.438,540.71,538.804,0.0
52455.0,STARLINK-3890,PAYLOAD,2023-07-12 03:48:32,15.08850254,0.0001564,53.2167,110.4946,88.0288,272.0883,-2.7605e-05,-7.27e-06,0.0,0 STARLINK-3890,1 52455U 22049E   23193.15870942 -.00000727  00000-0 -27605-4 0  9994,2 52455  53.2167 110.4946 0001564  88.0288 272.0883 15.08850254 65607,6917.849,95.437,540.796,538.632,0.0
52455.0,STARLINK-3890,PAYLOAD,2023-07-12 11:45:28,15.08844597,0.0001229,53.2174,109.006,81.8974,278.2157,1.8292e-05,3e-08,0.0,0 STARLINK-3890,1 52455U 22049E   23193.48991148  .00000003  00000-0  18292-4 0  9999,2 52455  53.2174 109.0060 0001229  81.8974 278.2157 15.08844597 65657,6917.866,95.437,540.582,538.881,0.0
52455.0,STARLINK-3890,PAYLOAD,2023-07-13 17:57:48,15.08843399,0.0001282,53.2167,103.355,94.949,265.1649,-2.0434e-05,-6.13e-06,0.0,0 STARLINK-3890,1 52455U 22049E   23194.74847543 -.00000613  00000-0 -20434-4 0  9998,2 52455  53.2167 103.3550 0001282  94.9490 265.1649 15.08843399 65848,6917.87,95.437,540.622,538.848,0.0
52455.0,STARLINK-3890,PAYLOAD,2023-07-15 00:10:07,15.08843775,0.000121,53.2168,97.7041,93.5823,266.5308,0.00012003,1.623e-05,0.0,0 STARLINK-3890,1 52455U 22049E   23196.00702988  .00001623  00000-0  12003-3 0  9994,2 52455  53.2168  97.7041 0001210  93.5823 266.5308 15.08843775 66033,6917.869,95.437,540.571,538.897,0.0
52455.0,STARLINK-3890,PAYLOAD,2023-07-16 03:11:41,15.0883977,0.0001148,53.2171,92.6503,82.3056,277.8066,1.229e-05,-9.2e-07,0.0,0 STARLINK-3890,1 52455U 22049E   23197.13311694 -.00000092  00000-0  12290-4 0  9998,2 52455  53.2171  92.6503 0001148  82.3056 277.8066 15.08839770 66203,6917.881,95.438,540.54,538.952,0.0
52455.0,STARLINK-3890,PAYLOAD,2023-07-17 09:24:00,15.08841898,0.0001015,53.2169,87.0006,83.641,276.4697,1.1933e-05,-9.8e-07,0.0,0 STARLINK-3890,1 52455U 22049E   23198.39167691 -.00000098  00000-0  11933-4 0  9992,2 52455  53.2169  87.0006 0001015  83.6410 276.4697 15.08841898 66396,6917.875,95.437,540.442,539.037,0.0
52455.0,STARLINK-3890,PAYLOAD,2023-07-19 01:08:39,15.08849153,0.0001306,53.2178,79.5642,96.2893,263.8248,-0.00012286,-2.243e-05,0.0,0 STARLINK-3890,1 52455U 22049E   23200.04767885 -.00002243  00000-0 -12286-3 0  9995,2 52455  53.2178  79.5642 0001306  96.2893 263.8248 15.08849153 66648,6917.852,95.437,540.621,538.814,0.0
52455.0,STARLINK-3890,PAYLOAD,2023-07-19 18:37:54,15.08836251,0.0001161,53.217,76.298,83.9593,276.1532,1.5109e-05,-4.7e-07,0.0,0 STARLINK-3890,1 52455U 22049E   23200.77632576 -.00000047  00000-0  15109-4 0  9990,2 52455  53.2170  76.2980 0001161  83.9593 276.1532 15.08836251 66758,6917.892,95.438,540.56,538.954,0.0
52455.0,STARLINK-3890,PAYLOAD,2023-07-20 23:14:50,15.08841923,0.0001099,53.217,70.9443,85.075,275.0367,0.00012914,1.768e-05,0.0,0 STARLINK-3890,1 52455U 22049E   23201.96863902  .00001768  00000-0  12914-3 0  9991,2 52455  53.2170  70.9443 0001099  85.0750 275.0367 15.08841923 66937,6917.875,95.437,540.5,538.979,0.0
52455.0,STARLINK-3890,PAYLOAD,2023-07-21 13:33:18,15.08837149,9.19e-05,53.217,68.2673,99.1238,260.9858,0.0001215,1.646e-05,0.0,0 STARLINK-3890,1 52455U 22049E   23202.56480193  .00001646  00000-0  12150-3 0  9992,2 52455  53.2170  68.2673 0000919  99.1238 260.9858 15.08837149 67023,6917.889,95.438,540.39,539.118,0.0
52455.0,STARLINK-3890,PAYLOAD,2023-07-24 13:05:40,15.08837178,0.0001328,53.2166,54.8835,106.4882,253.6256,5.7672e-05,6.3e-06,0.0,0 STARLINK-3890,1 52455U 22049E   23205.54560647  .00000630  00000-0  57672-4 0  9997,2 52455  53.2166  54.8835 0001328 106.4882 253.6256 15.08837178 67316,6917.889,95.438,540.673,538.835,0.0
52455.0,STARLINK-3890,PAYLOAD,2023-07-25 00:13:21,15.08845953,0.0001109,53.2172,52.8028,89.9292,270.1827,0.00011909,1.608e-05,0.0,0 STARLINK-3890,1 52455U 22049E   23206.00927993  .00001608  00000-0  11909-3 0  9998,2 52455  53.2172  52.8028 0001109  89.9292 270.1827 15.08845953 67387,6917.862,95.437,540.494,538.96,0.0
52455.0,STARLINK-3890,PAYLOAD,2023-07-26 00:04:10,15.08831291,8.05e-05,53.2204,48.3404,108.5336,251.5743,3.2121e-05,2.23e-06,0.0,0 STARLINK-3890,1 52455U 22049E   23207.00289408  .00000223  00000-0  32121-4 0  9993,2 52455  53.2204  48.3404 0000805 108.5336 251.5743 15.08831291 67537,6917.907,95.438,540.329,539.215,0.0
52455.0,STARLINK-3890,PAYLOAD,2023-07-26 22:19:33,15.08850617,0.0001344,53.2179,44.1789,120.227,239.8856,-4.2935e-05,-9.71e-06,0.0,0 STARLINK-3890,1 52455U 22049E   23207.93024380 -.00000971  00000-0 -42935-4 0  9997,2 52455  53.2179  44.1789 0001344 120.2270 239.8856 15.08850617 67677,6917.848,95.437,540.643,538.783,0.0
52455.0,STARLINK-3890,PAYLOAD,2023-07-27 06:16:29,15.08834328,8.52e-05,53.2173,42.6925,93.2441,266.8649,7.1088e-05,8.44e-06,0.0,0 STARLINK-3890,1 52455U 22049E   23208.26145085  .00000844  00000-0  71088-4 0  9998,2 52455  53.2173  42.6925 0000852  93.2441 266.8649 15.08834328 67882,6917.898,95.438,540.352,539.173,0.0
52455.0,STARLINK-3890,PAYLOAD,2023-07-27 20:34:57,15.08834459,9.43e-05,53.2176,40.0163,86.0917,274.0183,1.1452e-05,-1.05e-06,0.0,0 STARLINK-3890,1 52455U 22049E   23208.85761556 -.00000105  00000-0  11452-4 0  9990,2 52455  53.2176  40.0163 0000943  86.0917 274.0183 15.08834459 67812,6917.897,95.438,540.415,539.11,0.0
52455.0,STARLINK-3890,PAYLOAD,2023-07-28 07:42:39,15.088386,9.59e-05,53.2162,37.9353,84.1739,275.9362,3.9198e-05,3.36e-06,0.0,0 STARLINK-3890,1 52455U 22049E   23209.32129298  .00000336  00000-0  39198-4 0  9996,2 52455  53.2162  37.9353 0000959  84.1739 275.9362 15.08838600 68048,6917.885,95.438,540.413,539.086,0.0
52455.0,STARLINK-3890,PAYLOAD,2023-07-28 22:01:08,15.08791983,0.0001454,53.2166,35.26,103.3766,256.7388,0.00080704,0.00012563,0.0,0 STARLINK-3890,1 52455U 22049E   23209.91745844  .00012563  00000-0  80704-3 0  9995,2 52455  53.2166  35.2600 0001454 103.3766 256.7388 15.08791983 68130,6918.027,95.441,540.898,538.886,0.0
52455.0,STARLINK-3890,PAYLOAD,2023-07-29 05:58:03,15.08841501,0.0001039,53.2166,33.7727,86.836,273.2751,8.644e-05,1.088e-05,0.0,0 STARLINK-3890,1 52455U 22049E   23210.24864903  .00001088  00000-0  86440-4 0  9995,2 52455  53.2166  33.7727 0001039  86.8360 273.2751 15.08841501 68182,6917.876,95.437,540.46,539.022,0.0
52455.0,STARLINK-3890,PAYLOAD,2023-07-30 07:24:13,15.08840736,9.96e-05,53.2168,29.0151,91.9337,268.1769,5.3133e-05,5.58e-06,0.0,0 STARLINK-3890,1 52455U 22049E   23211.30848989  .00000558  00000-0  53133-4 0  9993,2 52455  53.2168  29.0151 0000996  91.9337 268.1769 15.08840736 68344,6917.878,95.438,540.432,539.054,0.0
52455.0,STARLINK-3890,PAYLOAD,2023-07-31 18:22:42,15.08839405,9.67e-05,53.2181,22.4713,93.7041,266.4061,-3.372e-05,-8.24e-06,0.0,0 STARLINK-3890,1 52455U 22049E   23212.76577457 -.00000824  00000-0 -33720-4 0  9991,2 52455  53.2181  22.4713 0000967  93.7041 266.4061 15.08839405 68561,6917.882,95.438,540.416,539.078,0.0
52455.0,STARLINK-3890,PAYLOAD,2023-08-02 03:45:48,15.08839712,8.74e-05,53.2177,16.2294,84.7524,275.3568,4.5453e-05,4.36e-06,0.0,0 STARLINK-3890,1 52455U 22049E   23214.15681514  .00000436  00000-0  45453-4 0  9999,2 52455  53.2177  16.2294 0000874  84.7524 275.3568 15.08839712 68779,6917.881,95.438,540.351,539.142,0.0
52455.0,STARLINK-3890,PAYLOAD,2023-08-02 21:15:02,15.08849099,9.23e-05,53.2177,12.9582,82.6246,277.4851,0.00017918,2.566e-05,0.0,0 STARLINK-3890,1 52455U 22049E   23214.88544735  .00002566  00000-0  17918-3 0  9992,2 52455  53.2177  12.9582 0000923  82.6246 277.4851 15.08849099 68884,6917.853,95.437,540.356,539.079,0.0
52455.0,STARLINK-3890,PAYLOAD,2023-08-03 09:58:08,15.08825668,6.29e-05,53.2178,10.574,138.5619,221.5421,0.00019453,2.809e-05,0.0,0 STARLINK-3890,1 52455U 22049E   23215.41538034  .00002809  00000-0  19453-3 0  9993,2 52455  53.2178  10.5740 0000629 138.5619 221.5421 15.08825668 68961,6917.924,95.438,540.224,539.354,0.0
52455.0,STARLINK-3890,PAYLOAD,2023-08-03 17:55:03,15.08846223,9.47e-05,53.2181,9.0912,102.2317,257.8781,8.4918e-05,1.064e-05,0.0,0 STARLINK-3890,1 52455U 22049E   23215.74657222  .00001064  00000-0  84918-4 0  9991,2 52455  53.2181   9.0912 0000947 102.2317 257.8781 15.08846223 69013,6917.861,95.437,540.381,539.071,0.0
